OBJECT_NAME,OBJECT_ID,EPOCH,MEAN_MOTION,ECCENTRICITY,INCLINATION,RA_OF_ASC_NODE,ARG_OF_PERICENTER,MEAN_ANOMALY,EPHEMERIS_TYPE,CLASSIFICATION_TYPE,NORAD_CAT_ID,ELEMENT_SET_NO,REV_AT_EPOCH,BSTAR,MEAN_MOTION_DOT,MEAN_MOTION_DDOT
STARLINK-36760,2026-099F,2026-06-28T22:32:37.437216,15.34401640,.00010374,53.1591,106.5669,79.3031,280.8088,0,U,68956,999,907,.6955828E-3,.23199E-3,0
STARLINK-37047,2026-099G,2026-06-28T22:29:35.858976,15.34409865,.00010436,53.1601,106.5729,84.4707,275.6414,0,U,68957,999,907,.80083541E-3,.26786E-3,0
STARLINK-36242,2026-099H,2026-06-28T22:26:33.729504,15.34393677,.00010584,53.1597,106.5399,91.1192,268.9932,0,U,68958,999,907,.60250402E-3,.20031E-3,0
STARLINK-37033,2026-099J,2026-06-28T02:04:11.364960,15.34389757,.00012149,53.1600,110.5033,89.7968,270.3174,0,U,68959,999,894,.74249056E-3,.24785E-3,0
STARLINK-36978,2026-099K,2026-06-28T12:57:43.737984,15.34405834,.00013227,53.1605,108.3593,88.3378,271.7776,0,U,68960,999,901,.11159227E-2,.37523E-3,0
STARLINK-36965,2026-099L,2026-06-28T19:09:53.074080,15.34399183,.00019239,53.1604,107.1251,115.1398,244.9804,0,U,68961,999,905,.72693741E-3,.24264E-3,0
STARLINK-36765,2026-099M,2026-06-28T19:06:51.295392,15.34402156,.00023453,53.1602,107.0925,102.3524,257.7741,0,U,68962,999,905,.76520276E-3,.25568E-3,0
STARLINK-36764,2026-099N,2026-06-28T19:03:50.234688,15.34381444,.00013061,53.1596,107.0794,92.1321,267.9831,0,U,68963,999,905,.64850075E-3,.21585E-3,0
STARLINK-36731,2026-099P,2026-06-28T12:45:36.264672,15.34412704,.00009621,53.1581,108.2792,99.9741,260.1370,0,U,68964,999,901,.52293851E-3,.1734E-3,0
STARLINK-36664,2026-099Q,2026-06-28T20:31:32.732544,15.34393442,.00023038,53.1600,106.7450,95.8962,264.2304,0,U,68965,999,906,.47887809E-3,.15834E-3,0
STARLINK-36402,2026-099R,2026-06-28T12:39:33.103872,15.34394351,.00008699,53.1590,108.2643,85.3747,274.7355,0,U,68966,999,901,.68309461E-3,.22769E-3,0
STARLINK-36671,2026-099S,2026-06-28T23:02:32.379072,15.33558957,.00014676,53.1597,105.9705,103.6839,256.4327,0,U,68967,999,908,.62253904E-3,.20163E-3,0
STARLINK-36665,2026-099T,2026-06-28T12:33:29.191392,15.34404389,.00008194,53.1608,108.2305,61.9346,298.1740,0,U,68968,999,901,.58465767E-3,.19431E-3,0
STARLINK-36303,2026-099U,2026-06-28T23:00:26.724960,15.33565778,.00011418,53.1586,105.9602,98.0943,262.0189,0,U,68969,999,908,.73004726E-3,.23726E-3,0
STARLINK-37257,2026-099V,2026-06-28T12:27:25.668576,15.34412408,.00013258,53.1617,108.2068,94.5474,265.5680,0,U,68970,999,901,.80628616E-3,.26974E-3,0
STARLINK-37367,2026-099W,2026-06-28T18:39:35.269056,15.34407008,.00013559,53.1597,106.9825,98.3583,261.7574,0,U,68971,999,905,.67329718E-3,.22445E-3,0
STARLINK-37259,2026-099X,2026-06-28T12:21:22.258944,15.34409753,.00009071,53.1614,108.1904,100.7918,259.3186,0,U,68972,999,901,.75155519E-3,.25109E-3,0
STARLINK-37387,2026-099Y,2026-06-28T22:50:40.552800,15.34400060,.00011043,53.1591,105.9457,101.9172,258.1955,0,U,68973,999,908,.82378287E-3,.27559E-3,0
STARLINK-37362,2026-099Z,2026-06-28T12:18:20.409408,15.34405985,.00012402,53.1601,108.1754,97.2754,262.8390,0,U,68974,999,901,.53470229E-3,.17736E-3,0
STARLINK-36667,2026-099AA,2026-06-28T23:11:53.042496,15.34407820,.00012956,53.1595,106.0199,89.4615,270.6536,0,U,68975,999,908,.89830853E-3,.30104E-3,0
STARLINK-36735,2026-099AB,2026-06-28T23:08:51.754560,15.34421156,.00012006,53.1591,106.0063,106.0989,254.0146,0,U,68976,999,908,.67914497E-3,.22654E-3,0
STARLINK-37371,2026-099AC,2026-06-28T23:05:47.738976,15.34394296,.0001418,53.1587,105.9839,27.8119,332.2960,0,U,68977,999,908,.34914165E-4,.803E-5,0
STARLINK-37293,2026-099AD,2026-06-28T23:02:47.480928,15.34429326,.00018183,53.1591,105.9767,127.6843,232.4325,0,U,68978,999,908,.10898728E-2,.36662E-3,0
STARLINK-36248,2026-099AE,2026-06-28T22:59:45.677184,15.34404371,.00012586,53.1593,105.9719,97.2003,262.9142,0,U,68979,999,908,.82426471E-3,.27579E-3,0
STARLINK-37592,2026-101A,2026-06-29T13:13:58.319616,15.33454001,.000189,97.2849,35.1649,92.1100,268.0359,0,U,69025,999,846,.44748E-3,.14403E-3,0
STARLINK-37637,2026-101B,2026-06-29T12:26:59.383104,15.33452689,.0002059,97.2843,35.2046,78.6991,281.4483,0,U,69026,999,846,.38201E-3,.12281E-3,0
STARLINK-37548,2026-101C,2026-06-29T12:50:28.724352,15.33457480,.0002268,97.2835,35.1850,102.5992,257.5504,0,U,69027,999,846,.44773E-3,.14413E-3,0
STARLINK-37634,2026-101D,2026-06-29T13:37:28.019424,15.33446656,.0001626,97.2841,35.2942,77.3722,282.7703,0,U,69028,999,847,.34498E-3,.11079E-3,0
STARLINK-37635,2026-101E,2026-06-29T13:02:15.447840,15.33438649,.0001923,97.2846,35.1744,92.0536,268.0927,0,U,69029,999,846,.51684E-3,.16644E-3,0
STARLINK-37615,2026-101F,2026-06-29T12:38:44.072736,15.33453831,.0002324,97.2842,35.1967,95.4009,264.7499,0,U,69030,999,846,.39112E-3,.12577E-3,0
