[
  {
    "name": "STARLINK-36760",
    "noradId": "68956",
    "line1": "1 68956U 26099F   26179.93932219  .00023199  00000+0  69558-3 0  9992",
    "line2": "2 68956  53.1591 106.5669 0001037  79.3031 280.8088 15.34401640  9075"
  },
  {
    "name": "STARLINK-37047",
    "noradId": "68957",
    "line1": "1 68957U 26099G   26179.93722059  .00026786  00000+0  80084-3 0  9994",
    "line2": "2 68957  53.1601 106.5729 0001043  84.4707 275.6414 15.34409865  9071"
  },
  {
    "name": "STARLINK-36242",
    "noradId": "68958",
    "line1": "1 68958U 26099H   26179.93511261  .00020031  00000+0  60250-3 0  9996",
    "line2": "2 68958  53.1597 106.5399 0001058  91.1192 268.9932 15.34393677  9071"
  },
  {
    "name": "STARLINK-37033",
    "noradId": "68959",
    "line1": "1 68959U 26099J   26179.08624265  .00024785  00000+0  74249-3 0  9995",
    "line2": "2 68959  53.1600 110.5033 0001214  89.7968 270.3174 15.34389757  8949"
  },
  {
    "name": "STARLINK-36978",
    "noradId": "68960",
    "line1": "1 68960U 26099K   26179.54008956  .00037523  00000+0  11159-2 0  9995",
    "line2": "2 68960  53.1605 108.3593 0001322  88.3378 271.7776 15.34405834  9019"
  },
  {
    "name": "STARLINK-36965",
    "noradId": "68961",
    "line1": "1 68961U 26099L   26179.79853095  .00024264  00000+0  72694-3 0  9995",
    "line2": "2 68961  53.1604 107.1251 0001923 115.1398 244.9804 15.34399183  9052"
  },
  {
    "name": "STARLINK-36765",
    "noradId": "68962",
    "line1": "1 68962U 26099M   26179.79642703  .00025568  00000+0  76520-3 0  9998",
    "line2": "2 68962  53.1602 107.0925 0002345 102.3524 257.7741 15.34402156  9053"
  },
  {
    "name": "STARLINK-36764",
    "noradId": "68963",
    "line1": "1 68963U 26099N   26179.79433142  .00021585  00000+0  64850-3 0  9992",
    "line2": "2 68963  53.1596 107.0794 0001306  92.1321 267.9831 15.34381444  9056"
  },
  {
    "name": "STARLINK-36731",
    "noradId": "68964",
    "line1": "1 68964U 26099P   26179.53166973  .00017340  00000+0  52294-3 0  9993",
    "line2": "2 68964  53.1581 108.2792 0000962  99.9741 260.1370 15.34412704  9013"
  },
  {
    "name": "STARLINK-36664",
    "noradId": "68965",
    "line1": "1 68965U 26099Q   26179.85523996  .00015834  00000+0  47888-3 0  9990",
    "line2": "2 68965  53.1600 106.7450 0002303  95.8962 264.2304 15.34393442  9065"
  },
  {
    "name": "STARLINK-36402",
    "noradId": "68966",
    "line1": "1 68966U 26099R   26179.52746648  .00022769  00000+0  68309-3 0  9992",
    "line2": "2 68966  53.1590 108.2643 0000869  85.3747 274.7355 15.34394351  9012"
  },
  {
    "name": "STARLINK-36671",
    "noradId": "68967",
    "line1": "1 68967U 26099S   26179.96009698  .00020163  00000+0  62254-3 0  9997",
    "line2": "2 68967  53.1597 105.9705 0001467 103.6839 256.4327 15.33558957  9080"
  },
  {
    "name": "STARLINK-36665",
    "noradId": "68968",
    "line1": "1 68968U 26099T   26179.52325453  .00019431  00000+0  58466-3 0  9996",
    "line2": "2 68968  53.1608 108.2305 0000819  61.9346 298.1740 15.34404389  9010"
  },
  {
    "name": "STARLINK-36303",
    "noradId": "68969",
    "line1": "1 68969U 26099U   26179.95864265  .00023726  00000+0  73005-3 0  9991",
    "line2": "2 68969  53.1586 105.9602 0001141  98.0943 262.0189 15.33565778  9086"
  },
  {
    "name": "STARLINK-37257",
    "noradId": "68970",
    "line1": "1 68970U 26099V   26179.51904709  .00026974  00000+0  80629-3 0  9991",
    "line2": "2 68970  53.1617 108.2068 0001325  94.5474 265.5680 15.34412408  9018"
  },
  {
    "name": "STARLINK-37367",
    "noradId": "68971",
    "line1": "1 68971U 26099W   26179.77749154  .00022445  00000+0  67330-3 0  9994",
    "line2": "2 68971  53.1597 106.9825 0001355  98.3583 261.7574 15.34407008  9052"
  },
  {
    "name": "STARLINK-37259",
    "noradId": "68972",
    "line1": "1 68972U 26099X   26179.51484096  .00025109  00000+0  75156-3 0  9993",
    "line2": "2 68972  53.1614 108.1904 0000907 100.7918 259.3186 15.34409753  9014"
  },
  {
    "name": "STARLINK-37387",
    "noradId": "68973",
    "line1": "1 68973U 26099Y   26179.95185825  .00027559  00000+0  82378-3 0  9995",
    "line2": "2 68973  53.1591 105.9457 0001104 101.9172 258.1955 15.34400060  9082"
  },
  {
    "name": "STARLINK-37362",
    "noradId": "68974",
    "line1": "1 68974U 26099Z   26179.51273622  .00017736  00000+0  53470-3 0  9998",
    "line2": "2 68974  53.1601 108.1754 0001240  97.2754 262.8390 15.34405985  9013"
  },
  {
    "name": "STARLINK-36667",
    "noradId": "68975",
    "line1": "1 68975U 26099AA  26179.96658614  .00030104  00000+0  89831-3 0  9990",
    "line2": "2 68975  53.1595 106.0199 0001295  89.4615 270.6536 15.34407820  9081"
  },
  {
    "name": "STARLINK-36735",
    "noradId": "68976",
    "line1": "1 68976U 26099AB  26179.96448790  .00022654  00000+0  67914-3 0  9992",
    "line2": "2 68976  53.1591 106.0063 0001200 106.0989 254.0146 15.34421156  9085"
  },
  {
    "name": "STARLINK-37371",
    "noradId": "68977",
    "line1": "1 68977U 26099AC  26179.96235809  .00000803  00000+0  34914-4 0  9995",
    "line2": "2 68977  53.1587 105.9839 0001418  27.8119 332.2960 15.34394296  9083"
  },
  {
    "name": "STARLINK-37293",
    "noradId": "68978",
    "line1": "1 68978U 26099AD  26179.96027177  .00036662  00000+0  10899-2 0  9999",
    "line2": "2 68978  53.1591 105.9767 0001818 127.6843 232.4325 15.34429326  9085"
  },
  {
    "name": "STARLINK-36248",
    "noradId": "68979",
    "line1": "1 68979U 26099AE  26179.95816756  .00027579  00000+0  82426-3 0  9991",
    "line2": "2 68979  53.1593 105.9719 0001258  97.2003 262.9142 15.34404371  9081"
  },
  {
    "name": "STARLINK-37592",
    "noradId": "69025",
    "line1": "1 69025U 26101A   26180.55136944  .00014403  00000+0  44748-3 0  9997",
    "line2": "2 69025  97.2849  35.1649 0001890  92.1100 268.0359 15.33454001  8469"
  },
  {
    "name": "STARLINK-37637",
    "noradId": "69026",
    "line1": "1 69026U 26101B   26180.51874286  .00012281  00000+0  38201-3 0  9991",
    "line2": "2 69026  97.2843  35.2046 0002059  78.6991 281.4483 15.33452689  8468"
  },
  {
    "name": "STARLINK-37548",
    "noradId": "69027",
    "line1": "1 69027U 26101C   26180.53505468  .00014413  00000+0  44773-3 0  9997",
    "line2": "2 69027  97.2835  35.1850 0002268 102.5992 257.5504 15.33457480  8464"
  },
  {
    "name": "STARLINK-37634",
    "noradId": "69028",
    "line1": "1 69028U 26101D   26180.56768541  .00011079  00000+0  34498-3 0  9992",
    "line2": "2 69028  97.2841  35.2942 0001626  77.3722 282.7703 15.33446656  8477"
  },
  {
    "name": "STARLINK-37635",
    "noradId": "69029",
    "line1": "1 69029U 26101E   26180.54323435  .00016644  00000+0  51684-3 0  9999",
    "line2": "2 69029  97.2846  35.1744 0001923  92.0536 268.0927 15.33438649  8466"
  },
  {
    "name": "STARLINK-37615",
    "noradId": "69030",
    "line1": "1 69030U 26101F   26180.52689899  .00012577  00000+0  39112-3 0  9991",
    "line2": "2 69030  97.2842  35.1967 0002324  95.4009 264.7499 15.33453831  8466"
  }
]